{
  "links" : {
    "next" : "https://api.nasa.gov/neo/rest/v1/feed?start_date=2009-10-23&end_date=2009-10-23&detailed=true&api_key=t0TVs3DtDT2H8Oy2Zy8m2eVrNsAVKAexjcZXUckd",
    "prev" : "https://api.nasa.gov/neo/rest/v1/feed?start_date=2009-10-21&end_date=2009-10-21&detailed=true&api_key=t0TVs3DtDT2H8Oy2Zy8m2eVrNsAVKAexjcZXUckd",
    "self" : "https://api.nasa.gov/neo/rest/v1/feed?start_date=2009-10-22&end_date=2009-10-22&detailed=true&api_key=t0TVs3DtDT2H8Oy2Zy8m2eVrNsAVKAexjcZXUckd"
  },
  "element_count" : 9,
  "near_earth_objects" : {
    "2009-10-22" : [ {
      "links" : {
        "self" : "https://api.nasa.gov/neo/rest/v1/neo/3715435?api_key=t0TVs3DtDT2H8Oy2Zy8m2eVrNsAVKAexjcZXUckd"
      },
      "neo_reference_id" : "3715435",
      "name" : "(2015 FA341)",
      "nasa_jpl_url" : "http://ssd.jpl.nasa.gov/sbdb.cgi?sstr=3715435",
      "absolute_magnitude_h" : 23.9,
      "estimated_diameter" : {
        "kilometers" : {
          "estimated_diameter_min" : 0.04411182,
          "estimated_diameter_max" : 0.0986370281
        },
        "meters" : {
          "estimated_diameter_min" : 44.1118199997,
          "estimated_diameter_max" : 98.6370281305
        },
        "miles" : {
          "estimated_diameter_min" : 0.0274098057,
          "estimated_diameter_max" : 0.0612901888
        },
        "feet" : {
          "estimated_diameter_min" : 144.7238235278,
          "estimated_diameter_max" : 323.6123073718
        }
      },
      "is_potentially_hazardous_asteroid" : false,
      "close_approach_data" : [ {
        "close_approach_date" : "2009-10-22",
        "epoch_date_close_approach" : 1256194800000,
        "relative_velocity" : {
          "kilometers_per_second" : "14.0482967922",
          "kilometers_per_hour" : "50573.8684519002",
          "miles_per_hour" : "31424.6350944599"
        },
        "miss_distance" : {
          "astronomical" : "0.3373906929",
          "lunar" : "131.2449798584",
          "kilometers" : "50472928",
          "miles" : "31362424"
        },
        "orbiting_body" : "Earth"
      } ],
      "orbital_data" : {
        "orbit_id" : "7",
        "orbit_determination_date" : "2017-04-06 08:34:36",
        "orbit_uncertainty" : "6",
        "minimum_orbit_intersection" : ".0381249",
        "jupiter_tisserand_invariant" : "5.366",
        "epoch_osculation" : "2458000.5",
        "eccentricity" : ".1852604249175756",
        "semi_major_axis" : "1.172630508189698",
        "inclination" : "5.616889274054556",
        "ascending_node_longitude" : "30.36437802257375",
        "orbital_period" : "463.8101092675078",
        "perihelion_distance" : ".9553884819711618",
        "perihelion_argument" : "68.35716073359085",
        "aphelion_distance" : "1.389872534408234",
        "perihelion_time" : "2457953.516809350133",
        "mean_anomaly" : "36.46739968791132",
        "mean_motion" : ".7761797183949819",
        "equinox" : "J2000"
      }
    }, {
      "links" : {
        "self" : "https://api.nasa.gov/neo/rest/v1/neo/3734558?api_key=t0TVs3DtDT2H8Oy2Zy8m2eVrNsAVKAexjcZXUckd"
      },
      "neo_reference_id" : "3734558",
      "name" : "(2015 VM105)",
      "nasa_jpl_url" : "http://ssd.jpl.nasa.gov/sbdb.cgi?sstr=3734558",
      "absolute_magnitude_h" : 26.6,
      "estimated_diameter" : {
        "kilometers" : {
          "estimated_diameter_min" : 0.0127219879,
          "estimated_diameter_max" : 0.0284472297
        },
        "meters" : {
          "estimated_diameter_min" : 12.7219878539,
          "estimated_diameter_max" : 28.4472296503
        },
        "miles" : {
          "estimated_diameter_min" : 0.0079050743,
          "estimated_diameter_max" : 0.0176762835
        },
        "feet" : {
          "estimated_diameter_min" : 41.7388066307,
          "estimated_diameter_max" : 93.330808926
        }
      },
      "is_potentially_hazardous_asteroid" : false,
      "close_approach_data" : [ {
        "close_approach_date" : "2009-10-22",
        "epoch_date_close_approach" : 1256194800000,
        "relative_velocity" : {
          "kilometers_per_second" : "7.0338201988",
          "kilometers_per_hour" : "25321.7527155499",
          "miles_per_hour" : "15733.9524026149"
        },
        "miss_distance" : {
          "astronomical" : "0.1468899699",
          "lunar" : "57.1401977539",
          "kilometers" : "21974426",
          "miles" : "13654276"
        },
        "orbiting_body" : "Earth"
      } ],
      "orbital_data" : {
        "orbit_id" : "9",
        "orbit_determination_date" : "2017-04-06 08:30:40",
        "orbit_uncertainty" : "7",
        "minimum_orbit_intersection" : ".0343444",
        "jupiter_tisserand_invariant" : "4.918",
        "epoch_osculation" : "2458000.5",
        "eccentricity" : ".2353387498738848",
        "semi_major_axis" : "1.313534375551284",
        "inclination" : "11.6578340705379",
        "ascending_node_longitude" : "229.8127465787248",
        "orbital_period" : "549.8707156699771",
        "perihelion_distance" : "1.004408837692671",
        "perihelion_argument" : "151.8794654062035",
        "aphelion_distance" : "1.622659913409897",
        "perihelion_time" : "2457862.850956182648",
        "mean_anomaly" : "90.11873948200575",
        "mean_motion" : ".654699349757818",
        "equinox" : "J2000"
      }
    }, {
      "links" : {
        "self" : "https://api.nasa.gov/neo/rest/v1/neo/3759293?api_key=t0TVs3DtDT2H8Oy2Zy8m2eVrNsAVKAexjcZXUckd"
      },
      "neo_reference_id" : "3759293",
      "name" : "(2016 RJ20)",
      "nasa_jpl_url" : "http://ssd.jpl.nasa.gov/sbdb.cgi?sstr=3759293",
      "absolute_magnitude_h" : 23.6,
      "estimated_diameter" : {
        "kilometers" : {
          "estimated_diameter_min" : 0.0506471459,
          "estimated_diameter_max" : 0.1132504611
        },
        "meters" : {
          "estimated_diameter_min" : 50.6471458835,
          "estimated_diameter_max" : 113.2504610618
        },
        "miles" : {
          "estimated_diameter_min" : 0.0314706677,
          "estimated_diameter_max" : 0.0703705522
        },
        "feet" : {
          "estimated_diameter_min" : 166.1651821003,
          "estimated_diameter_max" : 371.5566426699
        }
      },
      "is_potentially_hazardous_asteroid" : false,
      "close_approach_data" : [ {
        "close_approach_date" : "2009-10-22",
        "epoch_date_close_approach" : 1256194800000,
        "relative_velocity" : {
          "kilometers_per_second" : "12.6402154262",
          "kilometers_per_hour" : "45504.7755341688",
          "miles_per_hour" : "28274.8978867728"
        },
        "miss_distance" : {
          "astronomical" : "0.4223351091",
          "lunar" : "164.2883605957",
          "kilometers" : "63180436",
          "miles" : "39258504"
        },
        "orbiting_body" : "Earth"
      } ],
      "orbital_data" : {
        "orbit_id" : "5",
        "orbit_determination_date" : "2017-04-06 08:23:59",
        "orbit_uncertainty" : "6",
        "minimum_orbit_intersection" : ".00828972",
        "jupiter_tisserand_invariant" : "6.341",
        "epoch_osculation" : "2458000.5",
        "eccentricity" : ".5224785830367583",
        "semi_major_axis" : ".9249897519677948",
        "inclination" : "5.152429791312739",
        "ascending_node_longitude" : "153.3339942975987",
        "orbital_period" : "324.9404732467929",
        "perihelion_distance" : ".4417024170361388",
        "perihelion_argument" : "55.61450521477623",
        "aphelion_distance" : "1.408277086899451",
        "perihelion_time" : "2457888.269176176006",
        "mean_anomaly" : "124.3399942547374",
        "mean_motion" : "1.107895228941146",
        "equinox" : "J2000"
      }
    } ]
  }
}